1 45681U 20035AA  23001.05483483  .00008008  00000-0  55551-3 0  9995
2 45681  53.0541 240.3902 0001319  99.9792 260.1346 15.06423054143485
1 45681U 20035AA  23001.91735390  .00005897  00000-0  41453-3 0  9996
2 45681  53.0553 236.5184 0001616 102.4574 257.6596 15.06395224143615
1 45681U 20035AA  23001.91735390  .00005897  00000-0  41453-3 0  9996
2 45681  53.0553 236.5184 0001616 102.4574 257.6596 15.06395224143200
1 45681U 20035AA  23002.05004901  .00003947  00000-0  28379-3 0  9995
2 45681  53.0543 235.9231 0001158  93.8637 266.2484 15.06389497143633
1 45681U 20035AA  23002.91256344  .00005347  00000-0  37763-3 0  9993
2 45681  53.0550 232.0504 0001247  98.9415 261.1715 15.06393185143350
1 45681U 20035AA  23003.04525702  .00004083  00000-0  29286-3 0  9992
2 45681  53.0549 231.4547 0001231  99.7607 260.3521 15.06394559143782
1 45681U 20035AA  23003.90777030  .00002831  00000-0  20887-3 0  9997
2 45681  53.0541 227.5832 0001288 100.1085 260.0050 15.06394369143509
1 45681U 20035AA  23004.30584759  .00007884  00000-0  54743-3 0  9997
2 45681  53.0536 225.7961 0001271 101.8190 258.2942 15.06408255143973
1 45681U 20035AA  23004.30584759  .00007884  00000-0  54743-3 0  9997
2 45681  53.0536 225.7961 0001271 101.8190 258.2942 15.06408255143568
1 45681U 20035AA  23004.90296686  .00003963  00000-0  28473-3 0  9997
2 45681  53.0543 223.1169 0001506 109.4501 250.6651 15.06408375144061
1 45681U 20035AA  23005.30104598  .00002807  00000-0  20726-3 0  9991
2 45681  53.0534 221.3281 0001366 112.8927 247.2207 15.06404751143714
1 45681U 20035AA  23005.56643215  .00002717  00000-0  20121-3 0  9992
2 45681  53.0539 220.1369 0001429  97.0646 263.0505 15.06407554144166
1 45681U 20035AA  23005.69912127  .00001984  00000-0  15200-3 0  9994
2 45681  53.0527 219.5414 0001382 117.9090 242.2039 15.06411706144186
1 45681U 20035AA  23006.36258944 -.00000928  00000-0 -43401-4 0  9993
2 45681  53.0534 216.5629 0001161 110.3691 249.7423 15.06402414143878
1 45681U 20035AA  23006.82701720  .00001247  00000-0  10256-3 0  9993
2 45681  53.0529 214.4779 0001274 107.3760 252.7368 15.06404048144354
1 45681U 20035AA  23007.42413605  .00001373  00000-0  11103-3 0  9994
2 45681  53.0523 211.7969 0001375 110.4117 249.7020 15.06405170144035
1 45681U 20035AA  23007.82222357 -.00001623  00000-0 -90089-4 0  9991
2 45681  53.0529 210.0105 0001345 106.4034 253.7103 15.06393819144500
1 45681U 20035AA  23007.82222357 -.00001623  00000-0 -90089-4 0  9991
2 45681  53.0529 210.0105 0001345 106.4034 253.7103 15.06393819144094
1 45681U 20035AA  23008.55203925  .00000530  00000-0  54445-4 0  9992
2 45681  53.0540 206.7339 0001302 105.7812 254.3320 15.06396174144610
1 45681U 20035AA  23008.81742432 -.00000129  00000-0  10247-4 0  9999
2 45681  53.0540 205.5423 0001264 106.0550 254.0578 15.06400556144657
1 45681U 20035AA  23008.81742432 -.00000129  00000-0  10247-4 0  9999
2 45681  53.0540 205.5423 0001264 106.0550 254.0578 15.06400556144242
1 45681U 20035AA  23009.87897101  .00002743  00000-0  20299-3 0  9990
2 45681  53.0539 200.7767 0001361 105.8094 254.3045 15.06401170144814
1 45681U 20035AA  23010.21070371  .00002746  00000-0  20315-3 0  9994
2 45681  53.0539 199.2875 0001355 105.4762 254.6377 15.06403924144457
1 45681U 20035AA  23010.47609360  .00001782  00000-0  13852-3 0  9995
2 45681  53.0526 198.0959 0001383 104.6220 255.4922 15.06402233144901
1 45681U 20035AA  23010.80783074 -.00000444  00000-0 -10919-4 0  9995
2 45681  53.0528 196.6064 0001388 105.2801 254.8341 15.06395148144950
1 45681U 20035AA  23010.80783074 -.00000444  00000-0 -10919-4 0  9995
2 45681  53.0528 196.6064 0001388 105.2801 254.8341 15.06395148144545
1 45681U 20035AA  23011.20591300  .00000710  00000-0  66546-4 0  9990
2 45681  53.0542 194.8187 0001421 105.0671 255.0476 15.06398411145019
1 45681U 20035AA  23011.86937547  .00000939  00000-0  81914-4 0  9998
2 45681  53.0546 191.8400 0001385  98.3188 261.7959 15.06406144145118
1 45681U 20035AA  23011.86937547  .00000939  00000-0  81914-4 0  9998
2 45681  53.0546 191.8400 0001385  98.3188 261.7959 15.06406144144702
1 45681U 20035AA  23012.20112210 -.00000817  00000-0 -35960-4 0  9996
2 45681  53.0552 190.3510 0001301  94.7575 265.3563 15.06389890144757
1 45681U 20035AA  23012.79826476 -.00002324  00000-0 -13727-3 0  9997
2 45681  53.0548 187.6707 0001336  93.1577 266.9565 15.06370739145259
1 45681U 20035AA  23012.79826476 -.00002324  00000-0 -13727-3 0  9997
2 45681  53.0548 187.6707 0001336  93.1577 266.9565 15.06370739144843
1 45681U 20035AA  23013.19634054 -.00001187  00000-0 -60847-4 0  9993
2 45681  53.0549 185.8849 0000988 100.2297 259.8803 15.06381898145319
1 45681U 20035AA  23013.19634054 -.00001187  00000-0 -60847-4 0  9993
2 45681  53.0549 185.8849 0000988 100.2297 259.8803 15.06381898144903
1 45681U 20035AA  23013.72711537 -.00000885  00000-0 -40566-4 0  9994
2 45681  53.0534 183.5024 0001092  96.1742 263.9372 15.06388489145396
1 45681U 20035AA  23013.72711537 -.00000885  00000-0 -40566-4 0  9994
2 45681  53.0534 183.5024 0001092  96.1742 263.9372 15.06388489144980
1 45681U 20035AA  23014.85500427  .00004951  00000-0  35101-3 0  9997
2 45681  53.0533 178.4386 0001162  94.7045 265.4077 15.06402736145152
1 45681U 20035AA  23015.45213047  .00004872  00000-0  34563-3 0  9996
2 45681  53.0525 175.7579 0001135  94.2230 265.8889 15.06408073145243
1 45681U 20035AA  23015.58482168  .00005218  00000-0  36881-3 0  9992
2 45681  53.0519 175.1623 0001195  92.7141 267.3985 15.06411444145677
1 45681U 20035AA  23015.71751136  .00008070  00000-0  55967-3 0  9996
2 45681  53.0523 174.5668 0001011  91.8115 268.2989 15.06423015145695
1 45681U 20035AA  23015.71751136  .00008070  00000-0  55967-3 0  9996
2 45681  53.0523 174.5668 0001011  91.8115 268.2989 15.06423015145280
1 45681U 20035AA  23016.44732448 -.00001039  00000-0 -50853-4 0  9992
2 45681  53.0523 171.2899 0001139 103.2772 256.8344 15.06406804145395
1 45681U 20035AA  23016.58001717 -.00000854  00000-0 -38472-4 0  9992
2 45681  53.0524 170.6946 0001094 100.5280 259.5832 15.06407250145822
1 45681U 20035AA  23016.71270948  .00000141  00000-0  28346-4 0  9997
2 45681  53.0523 170.0989 0001144 100.4280 259.6838 15.06409866145841
1 45681U 20035AA  23017.44252898 -.00004169  00000-0 -26123-3 0  9998
2 45681  53.0524 166.8230 0000970  99.9046 260.2053 15.06394658145953
1 45681U 20035AA  23017.44252898 -.00004169  00000-0 -26123-3 0  9998
2 45681  53.0524 166.8230 0000970  99.9046 260.2053 15.06394658145548
1 45681U 20035AA  23018.57042579  .00001591  00000-0  12565-3 0  9995
2 45681  53.0539 161.7592 0000915  99.6258 260.4835 15.06399542146122
1 45681U 20035AA  23018.57042579  .00001591  00000-0  12565-3 0  9995
2 45681  53.0539 161.7592 0000915  99.6258 260.4835 15.06399542145716
1 45681U 20035AA  23018.63677135  .00002177  00000-0  16501-3 0  9999
2 45681  53.0538 161.4613 0000934 100.0687 260.0407 15.06401576146139
1 45681U 20035AA  23019.43294098  .00001868  00000-0  14429-3 0  9994
2 45681  53.0530 157.8876 0001229  89.6460 270.4670 15.06391819146258
1 45681U 20035AA  23019.43294098  .00001868  00000-0  14429-3 0  9994
2 45681  53.0530 157.8876 0001229  89.6460 270.4670 15.06391819145842
1 45681U 20035AA  23020.36179343  .00001629  00000-0  12821-3 0  9992
2 45681  53.0534 153.7181 0001090  76.7022 283.4088 15.06401302146394
1 45681U 20035AA  23020.62717684  .00002975  00000-0  21848-3 0  9991
2 45681  53.0530 152.5262 0000958  85.0774 275.0324 15.06407552146029
1 45681U 20035AA  23021.48968962  .00001937  00000-0  14888-3 0  9996
2 45681  53.0546 148.6562 0001213  92.3089 267.8039 15.06398122146158
1 45681U 20035AA  23022.61758297  .00001215  00000-0  10044-3 0  9999
2 45681  53.0524 143.5915 0001117  88.3227 271.7890 15.06401968146323
1 45681U 20035AA  23023.01567029  .00001713  00000-0  13387-3 0  9991
2 45681  53.0523 141.8045 0001197  84.3890 275.7235 15.06392447146381
1 45681U 20035AA  23024.47530230  .00001841  00000-0  14245-3 0  9992
2 45681  53.0528 135.2508 0001228 100.0452 260.0676 15.06393318146601
1 45681U 20035AA  23025.47051137  .00002392  00000-0  17950-3 0  9995
2 45681  53.0537 130.7849 0001014 110.8580 249.2517 15.06385387146759
1 45681U 20035AA  23025.60319941  .00000720  00000-0  67217-4 0  9995
2 45681  53.0523 130.1869 0001117  97.7581 262.3535 15.06398547147184
1 45681U 20035AA  23025.60319941  .00000720  00000-0  67217-4 0  9995
2 45681  53.0523 130.1869 0001117  97.7581 262.3535 15.06398547146778
1 45681U 20035AA  23026.53205590  .00001206  00000-0  99815-4 0  9991
2 45681  53.0525 126.0190 0001246  71.0874 289.0250 15.06400308147325
1 45681U 20035AA  23026.99648147  .00000600  00000-0  59140-4 0  9994
2 45681  53.0525 123.9338 0001409  72.6211 287.4932 15.06403429146985
1 45681U 20035AA  23027.52725751  .00001085  00000-0  91741-4 0  9992
2 45681  53.0532 121.5468 0000887 109.9907 250.1178 15.06398045147477
1 45681U 20035AA  23027.52725751  .00001085  00000-0  91741-4 0  9992
2 45681  53.0532 121.5468 0000887 109.9907 250.1178 15.06398045147062
1 45681U 20035AA  23028.45611546  .00000929  00000-0  81229-4 0  9997
2 45681  53.0524 117.3802 0001197  86.5452 273.5674 15.06397187147615
1 45681U 20035AA  23028.58880548  .00000049  00000-0  22158-4 0  9990
2 45681  53.0527 116.7831 0001213  98.1644 261.9483 15.06403936147635
1 45681U 20035AA  23028.58880548  .00000049  00000-0  22158-4 0  9990
2 45681  53.0527 116.7831 0001213  98.1644 261.9483 15.06403936147220
1 45681U 20035AA  23029.25228315 -.00000145  00000-0  91799-5 0  9999
2 45681  53.0524 113.8040 0001472 110.2158 249.8989 15.06390568147323
1 45681U 20035AA  23029.51766446 -.00000270  00000-0  79183-6 0  9993
2 45681  53.0527 112.6131 0001261 119.3355 240.7760 15.06399269147367
1 45681U 20035AA  23029.91574899  .00000466  00000-0  50203-4 0  9992
2 45681  53.0530 110.8286 0001143  92.4288 267.6832 15.06394750147837
1 45681U 20035AA  23030.44653057 -.00000457  00000-0 -11775-4 0  9999
2 45681  53.0530 108.4458 0001165  91.4854 268.6268 15.06389792147916
